[{"OBJECT_NAME":"OBJECT D","OBJECT_ID":"2022-023D","EPOCH":"2026-03-09T23:24:15.634080","MEAN_MOTION":15.18234448,"ECCENTRICITY":0.01133038,"INCLINATION":63.4606,"RA_OF_ASC_NODE":248.8448,"ARG_OF_PERICENTER":353.4959,"MEAN_ANOMALY":6.4675,"EPHEMERIS_TYPE":0,"CLASSIFICATION_TYPE":"U","NORAD_CAT_ID":51949,"ELEMENT_SET_NO":999,"REV_AT_EPOCH":22265,"BSTAR":0.0002367106,"MEAN_MOTION_DOT":5.513e-5,"MEAN_MOTION_DDOT":0},{"OBJECT_NAME":"STARLINK-4047","OBJECT_ID":"2022-086B","EPOCH":"2026-03-09T14:37:24.079008","MEAN_MOTION":15.08828696,"ECCENTRICITY":0.0001161,"INCLINATION":53.2168,"RA_OF_ASC_NODE":204.1723,"ARG_OF_PERICENTER":81.9547,"MEAN_ANOMALY":278.1577,"EPHEMERIS_TYPE":0,"CLASSIFICATION_TYPE":"U","NORAD_CAT_ID":53243,"ELEMENT_SET_NO":999,"REV_AT_EPOCH":20125,"BSTAR":-0.00018519,"MEAN_MOTION_DOT":-3.233e-5,"MEAN_MOTION_DDOT":0}]
